[{"OBJECT_NAME":"STARLINK-5665","OBJECT_ID":"2023-013AG","EPOCH":"2026-03-17T06:00:02.000160","MEAN_MOTION":15.16448271,"ECCENTRICITY":0.00014117,"INCLINATION":42.9996,"RA_OF_ASC_NODE":245.4167,"ARG_OF_PERICENTER":298.8599,"MEAN_ANOMALY":160.6529,"EPHEMERIS_TYPE":0,"CLASSIFICATION_TYPE":"U","NORAD_CAT_ID":55361,"ELEMENT_SET_NO":999,"REV_AT_EPOCH":577,"BSTAR":0.0015798723,"MEAN_MOTION_DOT":0.00031201,"MEAN_MOTION_DDOT":0},{"OBJECT_NAME":"STARLINK-5574","OBJECT_ID":"2023-013AH","EPOCH":"2026-03-17T06:00:02.000160","MEAN_MOTION":15.19037875,"ECCENTRICITY":0.00011346,"INCLINATION":42.9996,"RA_OF_ASC_NODE":245.185,"ARG_OF_PERICENTER":260.3394,"MEAN_ANOMALY":296.6704,"EPHEMERIS_TYPE":0,"CLASSIFICATION_TYPE":"U","NORAD_CAT_ID":55362,"ELEMENT_SET_NO":999,"REV_AT_EPOCH":573,"BSTAR":0.0013700463,"MEAN_MOTION_DOT":0.00029121,"MEAN_MOTION_DDOT":0},{"OBJECT_NAME":"STARLINK-5627","OBJECT_ID":"2023-013AK","EPOCH":"2026-03-17T06:00:02.000160","MEAN_MOTION":15.06708063,"ECCENTRICITY":7.767e-5,"INCLINATION":43.0006,"RA_OF_ASC_NODE":258.8268,"ARG_OF_PERICENTER":217.1648,"MEAN_ANOMALY":69.3677,"EPHEMERIS_TYPE":0,"CLASSIFICATION_TYPE":"U","NORAD_CAT_ID":55364,"ELEMENT_SET_NO":999,"REV_AT_EPOCH":577,"BSTAR":0.00030450038,"MEAN_MOTION_DOT":4.391e-5,"MEAN_MOTION_DDOT":0},{"OBJECT_NAME":"STARLINK-5639","OBJECT_ID":"2023-013AL","EPOCH":"2026-03-16T21:27:34.831296","MEAN_MOTION":15.02526053,"ECCENTRICITY":0.00010368,"INCLINATION":43.0031,"RA_OF_ASC_NODE":274.1326,"ARG_OF_PERICENTER":249.5512,"MEAN_ANOMALY":110.5219,"EPHEMERIS_TYPE":0,"CLASSIFICATION_TYPE":"U","NORAD_CAT_ID":55365,"ELEMENT_SET_NO":999,"REV_AT_EPOCH":17264,"BSTAR":4.7232301e-5,"MEAN_MOTION_DOT":4.34e-6,"MEAN_MOTION_DDOT":0},{"OBJECT_NAME":"STARLINK-5654","OBJECT_ID":"2023-013AM","EPOCH":"2026-03-17T06:00:02.000160","MEAN_MOTION":15.20155922,"ECCENTRICITY":0.00014798,"INCLINATION":42.9998,"RA_OF_ASC_NODE":245.1919,"ARG_OF_PERICENTER":281.3657,"MEAN_ANOMALY":270.6202,"EPHEMERIS_TYPE":0,"CLASSIFICATION_TYPE":"U","NORAD_CAT_ID":55366,"ELEMENT_SET_NO":999,"REV_AT_EPOCH":568,"BSTAR":0.0012059856,"MEAN_MOTION_DOT":0.00026447,"MEAN_MOTION_DDOT":0},{"OBJECT_NAME":"STARLINK-5635","OBJECT_ID":"2023-013AN","EPOCH":"2026-03-17T06:00:02.000160","MEAN_MOTION":15.17260512,"ECCENTRICITY":0.00024003,"INCLINATION":43.0002,"RA_OF_ASC_NODE":245.7136,"ARG_OF_PERICENTER":255.8524,"MEAN_ANOMALY":74.4547,"EPHEMERIS_TYPE":0,"CLASSIFICATION_TYPE":"U","NORAD_CAT_ID":55367,"ELEMENT_SET_NO":999,"REV_AT_EPOCH":578,"BSTAR":0.0013493251,"MEAN_MOTION_DOT":0.00027229,"MEAN_MOTION_DDOT":0},{"OBJECT_NAME":"STARLINK-5625","OBJECT_ID":"2023-013AP","EPOCH":"2026-03-17T06:00:02.000160","MEAN_MOTION":15.17720484,"ECCENTRICITY":0.00010967,"INCLINATION":43.0004,"RA_OF_ASC_NODE":245.2855,"ARG_OF_PERICENTER":270.3154,"MEAN_ANOMALY":243.7049,"EPHEMERIS_TYPE":0,"CLASSIFICATION_TYPE":"U","NORAD_CAT_ID":55368,"ELEMENT_SET_NO":999,"REV_AT_EPOCH":577,"BSTAR":0.0014236564,"MEAN_MOTION_DOT":0.00029134,"MEAN_MOTION_DDOT":0},{"OBJECT_NAME":"STARLINK-5644","OBJECT_ID":"2023-013AQ","EPOCH":"2026-03-17T05:24:36.891936","MEAN_MOTION":15.0253357,"ECCENTRICITY":0.00012489,"INCLINATION":43.0029,"RA_OF_ASC_NODE":272.3176,"ARG_OF_PERICENTER":263.1791,"MEAN_ANOMALY":96.8909,"EPHEMERIS_TYPE":0,"CLASSIFICATION_TYPE":"U","NORAD_CAT_ID":55369,"ELEMENT_SET_NO":999,"REV_AT_EPOCH":17269,"BSTAR":0.00012705086,"MEAN_MOTION_DOT":1.513e-5,"MEAN_MOTION_DDOT":0},{"OBJECT_NAME":"STARLINK-5027","OBJECT_ID":"2023-013AR","EPOCH":"2026-03-17T05:30:24.591456","MEAN_MOTION":15.02905767,"ECCENTRICITY":0.00031512,"INCLINATION":43.0031,"RA_OF_ASC_NODE":272.3507,"ARG_OF_PERICENTER":252.3724,"MEAN_ANOMALY":107.6774,"EPHEMERIS_TYPE":0,"CLASSIFICATION_TYPE":"U","NORAD_CAT_ID":55370,"ELEMENT_SET_NO":999,"REV_AT_EPOCH":17269,"BSTAR":0.0033387567,"MEAN_MOTION_DOT":0.00045642,"MEAN_MOTION_DDOT":0},{"OBJECT_NAME":"STARLINK-5590","OBJECT_ID":"2023-013AS","EPOCH":"2026-03-16T21:11:36.151584","MEAN_MOTION":15.0252682,"ECCENTRICITY":0.00011068,"INCLINATION":43.0018,"RA_OF_ASC_NODE":274.0469,"ARG_OF_PERICENTER":266.0615,"MEAN_ANOMALY":94.0101,"EPHEMERIS_TYPE":0,"CLASSIFICATION_TYPE":"U","NORAD_CAT_ID":55371,"ELEMENT_SET_NO":999,"REV_AT_EPOCH":17356,"BSTAR":-7.7479609e-5,"MEAN_MOTION_DOT":-1.25e-5,"MEAN_MOTION_DDOT":0},{"OBJECT_NAME":"STARLINK-5568","OBJECT_ID":"2023-013AT","EPOCH":"2026-03-17T05:19:47.647200","MEAN_MOTION":15.02548313,"ECCENTRICITY":0.00023071,"INCLINATION":43.0008,"RA_OF_ASC_NODE":272.2908,"ARG_OF_PERICENTER":268.6684,"MEAN_ANOMALY":91.3894,"EPHEMERIS_TYPE":0,"CLASSIFICATION_TYPE":"U","NORAD_CAT_ID":55372,"ELEMENT_SET_NO":999,"REV_AT_EPOCH":17269,"BSTAR":0.00022617354,"MEAN_MOTION_DOT":2.854e-5,"MEAN_MOTION_DDOT":0},{"OBJECT_NAME":"STARLINK-5581","OBJECT_ID":"2023-013AU","EPOCH":"2026-03-17T05:50:11.122656","MEAN_MOTION":15.02557337,"ECCENTRICITY":0.00016389,"INCLINATION":43.0008,"RA_OF_ASC_NODE":272.4419,"ARG_OF_PERICENTER":256.3878,"MEAN_ANOMALY":103.6782,"EPHEMERIS_TYPE":0,"CLASSIFICATION_TYPE":"U","NORAD_CAT_ID":55373,"ELEMENT_SET_NO":999,"REV_AT_EPOCH":17269,"BSTAR":-0.00056547878,"MEAN_MOTION_DOT":-7.838e-5,"MEAN_MOTION_DDOT":0},{"OBJECT_NAME":"STARLINK-5578","OBJECT_ID":"2023-013AV","EPOCH":"2026-03-16T14:53:29.820192","MEAN_MOTION":15.02519524,"ECCENTRICITY":0.0001158,"INCLINATION":43.002,"RA_OF_ASC_NODE":275.5189,"ARG_OF_PERICENTER":256.9779,"MEAN_ANOMALY":103.0934,"EPHEMERIS_TYPE":0,"CLASSIFICATION_TYPE":"U","NORAD_CAT_ID":55374,"ELEMENT_SET_NO":999,"REV_AT_EPOCH":17260,"BSTAR":-6.5379111e-5,"MEAN_MOTION_DOT":-1.086e-5,"MEAN_MOTION_DDOT":0},{"OBJECT_NAME":"STARLINK-5588","OBJECT_ID":"2023-013AW","EPOCH":"2026-03-16T19:26:16.220544","MEAN_MOTION":15.02536307,"ECCENTRICITY":0.00011722,"INCLINATION":43.0026,"RA_OF_ASC_NODE":274.36,"ARG_OF_PERICENTER":270.3059,"MEAN_ANOMALY":89.7649,"EPHEMERIS_TYPE":0,"CLASSIFICATION_TYPE":"U","NORAD_CAT_ID":55375,"ELEMENT_SET_NO":999,"REV_AT_EPOCH":17263,"BSTAR":8.863329e-6,"MEAN_MOTION_DOT":-8.4e-7,"MEAN_MOTION_DDOT":0},{"OBJECT_NAME":"STARLINK-5586","OBJECT_ID":"2023-013AX","EPOCH":"2026-03-17T06:00:02.000160","MEAN_MOTION":15.19306801,"ECCENTRICITY":0.00023512,"INCLINATION":42.9991,"RA_OF_ASC_NODE":245.5633,"ARG_OF_PERICENTER":259.2179,"MEAN_ANOMALY":133.3639,"EPHEMERIS_TYPE":0,"CLASSIFICATION_TYPE":"U","NORAD_CAT_ID":55376,"ELEMENT_SET_NO":999,"REV_AT_EPOCH":573,"BSTAR":0.0014625142,"MEAN_MOTION_DOT":0.00031358,"MEAN_MOTION_DDOT":0},{"OBJECT_NAME":"STARLINK-5567","OBJECT_ID":"2023-013AY","EPOCH":"2026-03-17T06:17:11.011200","MEAN_MOTION":15.02538842,"ECCENTRICITY":0.00014019,"INCLINATION":43.0024,"RA_OF_ASC_NODE":271.7302,"ARG_OF_PERICENTER":266.8697,"MEAN_ANOMALY":93.1985,"EPHEMERIS_TYPE":0,"CLASSIFICATION_TYPE":"U","NORAD_CAT_ID":55377,"ELEMENT_SET_NO":999,"REV_AT_EPOCH":17270,"BSTAR":4.7528173e-5,"MEAN_MOTION_DOT":4.38e-6,"MEAN_MOTION_DDOT":0}]
