STARLINK-5665           
1 55361U 23013AG  26076.25002315  .00031201  00000+0  15799-2 0  9997
2 55361  42.9996 245.4167 0001411 298.8599 160.6529 15.16448271  5774
STARLINK-5574           
1 55362U 23013AH  26076.25002315  .00029121  00000+0  13700-2 0  9996
2 55362  42.9996 245.1850 0001134 260.3394 296.6704 15.19037875  5738
STARLINK-5627           
1 55364U 23013AK  26076.25002315  .00004391  00000+0  30450-3 0  9992
2 55364  43.0006 258.8268 0000776 217.1648  69.3677 15.06708063  5779
STARLINK-5639           
1 55365U 23013AL  26075.89415314  .00000434  00000+0  47232-4 0  9990
2 55365  43.0031 274.1326 0001036 249.5512 110.5219 15.02526053172648
STARLINK-5654           
1 55366U 23013AM  26076.25002315  .00026447  00000+0  12060-2 0  9996
2 55366  42.9998 245.1919 0001479 281.3657 270.6202 15.20155922  5682
STARLINK-5635           
1 55367U 23013AN  26076.25002315  .00027229  00000+0  13493-2 0  9997
2 55367  43.0002 245.7136 0002400 255.8524  74.4547 15.17260512  5783
STARLINK-5625           
1 55368U 23013AP  26076.25002315  .00029134  00000+0  14237-2 0  9992
2 55368  43.0004 245.2855 0001096 270.3154 243.7049 15.17720484  5776
STARLINK-5644           
1 55369U 23013AQ  26076.22542699  .00001513  00000+0  12705-3 0  9994
2 55369  43.0029 272.3176 0001248 263.1791  96.8909 15.02533570172697
STARLINK-5027           
1 55370U 23013AR  26076.22945129  .00045642  00000+0  33388-2 0  9991
2 55370  43.0031 272.3507 0003151 252.3724 107.6774 15.02905767172693
STARLINK-5590           
1 55371U 23013AS  26075.88305731 -.00001250  00000+0 -77480-4 0  9994
2 55371  43.0018 274.0469 0001106 266.0615  94.0101 15.02526820173563
STARLINK-5568           
1 55372U 23013AT  26076.22207925  .00002854  00000+0  22617-3 0  9990
2 55372  43.0008 272.2908 0002307 268.6684  91.3894 15.02548313172692
STARLINK-5581           
1 55373U 23013AU  26076.24318429 -.00007838  00000+0 -56548-3 0  9994
2 55373  43.0008 272.4419 0001638 256.3878 103.6782 15.02557337172696
STARLINK-5578           
1 55374U 23013AV  26075.62048403 -.00001086  00000+0 -65379-4 0  9990
2 55374  43.0020 275.5189 0001158 256.9779 103.0934 15.02519524172602
STARLINK-5588           
1 55375U 23013AW  26075.80990996 -.00000084  00000+0  88633-5 0  9999
2 55375  43.0026 274.3600 0001172 270.3059  89.7649 15.02536307172635
STARLINK-5586           
1 55376U 23013AX  26076.25002315  .00031358  00000+0  14625-2 0  9993
2 55376  42.9991 245.5633 0002351 259.2179 133.3639 15.19306801  5733
STARLINK-5567           
1 55377U 23013AY  26076.26193300  .00000438  00000+0  47528-4 0  9995
2 55377  43.0024 271.7302 0001401 266.8697  93.1985 15.02538842172704
